{
  "type": "FeatureCollection",
  "features": [
    {
      "type": "Feature",
      "properties": {
        "norad_id": 33412,
        "name": "COSMO-SKYMED 3",
        "group": "resource",
        "lat": 75.29981555182927,
        "lon": 167.31603788150755,
        "alt_km": 543.0245428230874,
        "timestamp": "2025-12-14T14:39:29.033059+00:00",
        "meta_object_name": "COSMO-SKYMED 3",
        "meta_object_id": "2008-054A",
        "meta_epoch": "2025-12-13T23:57:24.621696",
        "meta_mean_motion": 15.05380991,
        "meta_eccentricity": 0.00161243,
        "meta_inclination": 97.8477,
        "meta_ra_of_asc_node": 198.4111,
        "meta_arg_of_pericenter": 169.0623,
        "meta_mean_anomaly": 191.0957,
        "meta_ephemeris_type": 0,
        "meta_classification_type": "U",
        "meta_norad_cat_id": 33412,
        "meta_element_set_no": 999,
        "meta_rev_at_epoch": 92906,
        "meta_bstar": 0.00068788489,
        "meta_mean_motion_dot": 9.831e-05,
        "meta_mean_motion_ddot": 0,
        "tle_line1": "1 33412U 08054A   25347.99820164  .00009831  00000+0  68788-3 0  9990",
        "tle_line2": "2 33412  97.8477 198.4111 0016124 169.0623 191.0957 15.05380991929062"
      },
      "geometry": {
        "type": "Point",
        "coordinates": [
          167.31603788150755,
          75.29981555182927
        ]
      }
    },
    {
      "type": "Feature",
      "properties": {
        "norad_id": 33446,
        "name": "YAOGAN-4",
        "group": "resource",
        "lat": -81.28066952437788,
        "lon": 33.53532250445774,
        "alt_km": 622.1910078707233,
        "timestamp": "2025-12-14T14:39:29.033069+00:00",
        "meta_object_name": "YAOGAN-4",
        "meta_object_id": "2008-061A",
        "meta_epoch": "2025-12-13T19:38:34.739232",
        "meta_mean_motion": 14.82687573,
        "meta_eccentricity": 0.00135062,
        "meta_inclination": 97.9179,
        "meta_ra_of_asc_node": 277.9072,
        "meta_arg_of_pericenter": 319.5483,
        "meta_mean_anomaly": 40.4725,
        "meta_ephemeris_type": 0,
        "meta_classification_type": "U",
        "meta_norad_cat_id": 33446,
        "meta_element_set_no": 999,
        "meta_rev_at_epoch": 91819,
        "meta_bstar": 0.00027850382,
        "meta_mean_motion_dot": 2.196e-05,
        "meta_mean_motion_ddot": 0,
        "tle_line1": "1 33446U 08061A   25347.81845763  .00002196  00000+0  27850-3 0  9990",
        "tle_line2": "2 33446  97.9179 277.9072 0013506 319.5483  40.4725 14.82687573918197"
      },
      "geometry": {
        "type": "Point",
        "coordinates": [
          33.53532250445774,
          -81.28066952437788
        ]
      }
    },
    {
      "type": "Feature",
      "properties": {
        "norad_id": 33492,
        "name": "GOSAT (IBUKI)",
        "group": "resource",
        "lat": -36.45771742427851,
        "lon": -88.83451548639474,
        "alt_km": 675.6007125771966,
        "timestamp": "2025-12-14T14:39:29.033080+00:00",
        "meta_object_name": "GOSAT (IBUKI)",
        "meta_object_id": "2009-002A",
        "meta_epoch": "2025-12-13T21:18:35.439552",
        "meta_mean_motion": 14.67557806,
        "meta_eccentricity": 9.462e-05,
        "meta_inclination": 98.077,
        "meta_ra_of_asc_node": 96.4752,
        "meta_arg_of_pericenter": 93.6106,
        "meta_mean_anomaly": 266.5207,
        "meta_ephemeris_type": 0,
        "meta_classification_type": "U",
        "meta_norad_cat_id": 33492,
        "meta_element_set_no": 999,
        "meta_rev_at_epoch": 90428,
        "meta_bstar": 0.00022832293,
        "meta_mean_motion_dot": 1.247e-05,
        "meta_mean_motion_ddot": 0,
        "tle_line1": "1 33492U 09002A   25347.88791018  .00001247  00000+0  22832-3 0  9998",
        "tle_line2": "2 33492  98.0770  96.4752 0000946  93.6106 266.5207 14.67557806904281"
      },
      "geometry": {
        "type": "Point",
        "coordinates": [
          -88.83451548639474,
          -36.45771742427851
        ]
      }
    },
    {
      "type": "Feature",
      "properties": {
        "norad_id": 35681,
        "name": "DEIMOS-1",
        "group": "resource",
        "lat": -15.757500777674057,
        "lon": 151.31872926231205,
        "alt_km": 650.1549279116798,
        "timestamp": "2025-12-14T14:39:29.033091+00:00",
        "meta_object_name": "DEIMOS-1",
        "meta_object_id": "2009-041A",
        "meta_epoch": "2025-12-14T00:04:35.673024",
        "meta_mean_motion": 14.74955721,
        "meta_eccentricity": 0.00027169,
        "meta_inclination": 97.7149,
        "meta_ra_of_asc_node": 148.5475,
        "meta_arg_of_pericenter": 77.5805,
        "meta_mean_anomaly": 282.5708,
        "meta_ephemeris_type": 0,
        "meta_classification_type": "U",
        "meta_norad_cat_id": 35681,
        "meta_element_set_no": 999,
        "meta_rev_at_epoch": 87958,
        "meta_bstar": 0.00016648628,
        "meta_mean_motion_dot": 1.071e-05,
        "meta_mean_motion_ddot": 0,
        "tle_line1": "1 35681U 09041A   25348.00319066  .00001071  00000+0  16649-3 0  9991",
        "tle_line2": "2 35681  97.7149 148.5475 0002716  77.5805 282.5708 14.74955721879588"
      },
      "geometry": {
        "type": "Point",
        "coordinates": [
          151.31872926231205,
          -15.757500777674057
        ]
      }
    },
    {
      "type": "Feature",
      "properties": {
        "norad_id": 35682,
        "name": "DUBAISAT-1",
        "group": "resource",
        "lat": -79.56008282425717,
        "lon": 168.83137323000707,
        "alt_km": 648.0418695469698,
        "timestamp": "2025-12-14T14:39:29.033103+00:00",
        "meta_object_name": "DUBAISAT-1",
        "meta_object_id": "2009-041B",
        "meta_epoch": "2025-12-13T22:44:57.041952",
        "meta_mean_motion": 14.74609148,
        "meta_eccentricity": 0.00094902,
        "meta_inclination": 97.9785,
        "meta_ra_of_asc_node": 118.6096,
        "meta_arg_of_pericenter": 310.3721,
        "meta_mean_anomaly": 49.6659,
        "meta_ephemeris_type": 0,
        "meta_classification_type": "U",
        "meta_norad_cat_id": 35682,
        "meta_element_set_no": 999,
        "meta_rev_at_epoch": 87779,
        "meta_bstar": 0.00028028268,
        "meta_mean_motion_dot": 1.819e-05,
        "meta_mean_motion_ddot": 0,
        "tle_line1": "1 35682U 09041B   25347.94788243  .00001819  00000+0  28028-3 0  9995",
        "tle_line2": "2 35682  97.9785 118.6096 0009490 310.3721  49.6659 14.74609148877792"
      },
      "geometry": {
        "type": "Point",
        "coordinates": [
          168.83137323000707,
          -79.56008282425717
        ]
      }
    },
    {
      "type": "Feature",
      "properties": {
        "norad_id": 35931,
        "name": "OCEANSAT-2",
        "group": "resource",
        "lat": -49.5327258185992,
        "lon": -1.2203644711163635,
        "alt_km": 901.9604811165782,
        "timestamp": "2025-12-14T14:39:29.033113+00:00",
        "meta_object_name": "OCEANSAT-2",
        "meta_object_id": "2009-051A",
        "meta_epoch": "2025-12-13T23:27:21.577248",
        "meta_mean_motion": 13.99624415,
        "meta_eccentricity": 0.00161855,
        "meta_inclination": 98.2222,
        "meta_ra_of_asc_node": 348.4525,
        "meta_arg_of_pericenter": 41.814,
        "meta_mean_anomaly": 318.426,
        "meta_ephemeris_type": 0,
        "meta_classification_type": "U",
        "meta_norad_cat_id": 35931,
        "meta_element_set_no": 999,
        "meta_rev_at_epoch": 85342,
        "meta_bstar": -6.3861296e-05,
        "meta_mean_motion_dot": -1.31e-06,
        "meta_mean_motion_ddot": 0,
        "tle_line1": "1 35931U 09051A   25347.97733307 -.00000131  00000+0 -63861-4 0  9990",
        "tle_line2": "2 35931  98.2222 348.4525 0016185  41.8140 318.4260 13.99624415853428"
      },
      "geometry": {
        "type": "Point",
        "coordinates": [
          -1.2203644711163635,
          -49.5327258185992
        ]
      }
    },
    {
      "type": "Feature",
      "properties": {
        "norad_id": 35946,
        "name": "WORLDVIEW-2 (WV-2)",
        "group": "resource",
        "lat": -32.14895822014556,
        "lon": 65.04862704719885,
        "alt_km": 772.601747090449,
        "timestamp": "2025-12-14T14:39:29.033127+00:00",
        "meta_object_name": "WORLDVIEW-2 (WV-2)",
        "meta_object_id": "2009-055A",
        "meta_epoch": "2025-12-13T22:06:23.196384",
        "meta_mean_motion": 14.37724452,
        "meta_eccentricity": 0.00051497,
        "meta_inclination": 98.4788,
        "meta_ra_of_asc_node": 58.989,
        "meta_arg_of_pericenter": 67.7566,
        "meta_mean_anomaly": 292.4167,
        "meta_ephemeris_type": 0,
        "meta_classification_type": "U",
        "meta_norad_cat_id": 35946,
        "meta_element_set_no": 999,
        "meta_rev_at_epoch": 84902,
        "meta_bstar": 7.1764937e-05,
        "meta_mean_motion_dot": 1.72e-06,
        "meta_mean_motion_ddot": 0,
        "tle_line1": "1 35946U 09055A   25347.92110181  .00000172  00000+0  71765-4 0  9999",
        "tle_line2": "2 35946  98.4788  58.9890 0005149  67.7566 292.4167 14.37724452849021"
      },
      "geometry": {
        "type": "Point",
        "coordinates": [
          65.04862704719885,
          -32.14895822014556
        ]
      }
    }
  ]
}